[{"OBJECT_NAME":"STARLINK-30275","OBJECT_ID":"2023-124E","EPOCH":"2026-03-09T16:54:18.753408","MEAN_MOTION":15.30184111,"ECCENTRICITY":9.287e-5,"INCLINATION":53.1604,"RA_OF_ASC_NODE":207.0027,"ARG_OF_PERICENTER":81.4136,"MEAN_ANOMALY":278.697,"EPHEMERIS_TYPE":0,"CLASSIFICATION_TYPE":"U","NORAD_CAT_ID":57667,"ELEMENT_SET_NO":999,"REV_AT_EPOCH":14356,"BSTAR":0.00012225249,"MEAN_MOTION_DOT":3.262e-5,"MEAN_MOTION_DDOT":0},{"OBJECT_NAME":"CZ-6A DEB","OBJECT_ID":"2024-140ABG","EPOCH":"2026-03-09T16:43:29.524800","MEAN_MOTION":15.18896608,"ECCENTRICITY":0.00616087,"INCLINATION":89.2171,"RA_OF_ASC_NODE":295.9508,"ARG_OF_PERICENTER":79.2706,"MEAN_ANOMALY":281.5467,"EPHEMERIS_TYPE":0,"CLASSIFICATION_TYPE":"U","NORAD_CAT_ID":61498,"ELEMENT_SET_NO":999,"REV_AT_EPOCH":8006,"BSTAR":0.0048163661,"MEAN_MOTION_DOT":0.0010689,"MEAN_MOTION_DDOT":0}]
